
ONEWEB-0126             
1 47272U 20100Q   24364.54759166 -.00000094  00000+0 -29793-3 0  9994
2 47272  87.8882  97.1006 0001770 109.0666 251.0654 13.12444832194572
ONEWEB-0127             
1 47273U 20100R   24364.50947392 -.00000065  00000+0 -21730-3 0  9992
2 47273  87.8887  97.1433 0001729 112.2127 247.9185 13.12443889194590
ONEWEB-0128             
1 47274U 20100S   24364.53217898 -.00000255  00000+0 -74375-3 0  9991
2 47274  87.8894  97.1541 0001499 112.2072 247.9215 13.12441849194613
ONEWEB-0129             
1 47275U 20100T   24364.51110525 -.00000188  00000+0 -55848-3 0  9998
2 47275  87.8886  97.1130 0002675 128.9779 231.1588 13.12443455194549
ONEWEB-0130             
1 47276U 20100U   24364.53866402 -.00000174  00000+0 -51954-3 0  9992
2 47276  87.8884  97.1121 0001594 109.6335 250.4966 13.12441274194519
ONEWEB-0131             
1 47277U 20100V   24364.53542361 -.00000506  00000+0 -14409-2 0  9990
2 47277  87.8888  97.1330 0001581 107.7100 252.4201 13.12443285194553
ONEWEB-0132             
1 47278U 20100W   24364.56463948  .00000496  00000+0  13441-2 0  9998
2 47278  87.8887  97.1291 0001533  98.0209 262.1093 13.12442809194455
ONEWEB-0133             
1 47279U 20100X   24364.19967184  .00000108  00000+0  26358-3 0  9991
2 47279  87.8882  97.1895 0001560 107.3046 252.8254 13.12442885194565
ONEWEB-0134             
1 47280U 20100Y   24364.55004369  .00000273  00000+0  72426-3 0  9990
2 47280  87.8879  97.1053 0001580 115.8898 244.2393 13.12445153194582
ONEWEB-0135             
1 47281U 20100Z   24364.52083510 -.00000319  00000+0 -92341-3 0  9994
2 47281  87.8888  97.1379 0001325 122.0955 238.0302 13.12445181194600
ONEWEB-0136             
1 47282U 20100AA  24364.54030249 -.00000090  00000+0 -28448-3 0  9991
2 47282  87.8886  97.1017 0001656 123.9220 236.2066 13.12445352194539
ONEWEB-0137             
1 47283U 20100AB  24364.49813030  .00000275  00000+0  72855-3 0  9997
2 47283  87.8881  97.1258 0001825 105.4982 254.6348 13.12442705194435
ONEWEB-0138             
1 47284U 20100AC  24364.55328295  .00000328  00000+0  87550-3 0  9996
2 47284  87.8880  97.1268 0001682 110.9773 249.1536 13.12442859194524
ONEWEB-0139             
1 47285U 20100AD  24364.51611137 -.00000266  00000+0 -77508-3 0  9998
2 47285  87.8888  97.1146 0001680 106.7692 253.3621 13.12443563194591
ONEWEB-0140             
1 47286U 20100AE  24364.54677971 -.00000134  00000+0 -40884-3 0  9991
2 47286  87.8881  97.1042 0001661 109.4644 250.6664 13.12444451194567
ONEWEB-0141             
1 47287U 20100AF  24364.51582263 -.00000278  00000+0 -80762-3 0  9996
2 47287  87.8883  97.1250 0001813 102.5552 257.5780 13.12441089194549
ONEWEB-0142             
1 47288U 20100AG  24364.02691933  .00000462  00000+0  12501-2 0  9996
2 47288  87.8882  97.2032 0001951 109.7404 250.3935 13.12444562194470
ONEWEB-0143             
1 47289U 20100AH  24364.51435099 -.00000270  00000+0 -78678-3 0  9997
2 47289  87.8884  97.1288 0001674 106.1209 254.0104 13.12443043194518
ONEWEB-0144             
1 47290U 20100AJ  24364.56300184  .00000179  00000+0  46338-3 0  9994
2 47290  87.8882  97.1015 0001916 114.8586 245.2742 13.12443706194447
ONEWEB-0145             
1 47291U 20100AK  24364.53379965 -.00000239  00000+0 -70055-3 0  9997
2 47291  87.8884  97.1320 0001730 110.4337 249.6978 13.12441629194631
ONEWEB-0146             
1 47292U 20100AL  24364.53055534 -.00000321  00000+0 -92834-3 0  9992
2 47292  87.8886  97.1179 0001446  93.4715 266.6578 13.12441526194541
ONEWEB-0147             
1 47293U 20100AM  24364.49650981  .00000279  00000+0  73948-3 0  9990
2 47293  87.8881  97.1113 0001546 116.8978 243.2309 13.12440915194439
XJY-7                   
1 47298U 20102C   24364.58008362  .00040119  00000+0  10834-2 0  9998
2 47298  97.3801 100.7182 0007903 233.0216 127.0305 15.37619150223783
YAOGAN-33 01            
1 47302U 20103A   24364.60472874  .00001611  00000+0  35397-3 0  9997
2 47302  98.1090 249.9558 0001964  38.3201 321.8138 14.58826958213361
WEINA 2                 
1 47303U 20103B   24364.58141020  .00003683  00000+0  72498-3 0  9995
2 47303  98.1145 252.5328 0003621  82.0014 278.1599 14.63156196213493
TURKSAT 5A              
1 47306U 21001A   24363.01854990  .00000183  00000+0  00000+0 0  9998
2 47306   0.0271  74.2919 0000173   1.8120  58.4753  1.00270985 14590
TIANTONG-1 3            
1 47321U 21003A   24364.47533203 -.00000125  00000+0  00000+0 0  9996
2 47321   2.5004 316.3204 0005457 323.0751  71.6510  1.00273938 14605
GMS-T                   
1 47346U 21004A   24364.62164789  .00000044  00000+0  93488-4 0  9996
2 47346  90.0935 236.1771 0003848  69.2541 290.9003 13.16638316189255
STARLINK-2017           
1 47351U 21005C   24364.21258445  .00011454  00000+0  78614-3 0  9991
2 47351  53.0512 176.5391 0001166  83.2700 276.8421 15.06419578217965
STARLINK-2034           
1 47352U 21005D   24364.29831198  .00001422  00000+0  11434-3 0  9993
2 47352  53.0542 216.1702 0001705  95.2954 264.8229 15.06397811217417
STARLINK-2045           
1 47353U 21005E   24364.45264127  .00001392  00000+0  11228-3 0  9991
2 47353  53.0539 160.4704 0001128  84.2208 275.8910 15.06410430218217
STARLINK-2046           
1 47354U 21005F   24363.78741362  .00002147  00000+0  16296-3 0  9997
2 47354  53.0510 183.9984 0001191  85.2613 274.8512 15.06406324217828
STARLINK-2047           
1 47355U 21005G   24364.42085899  .00000622  00000+0  60612-4 0  9994
2 47355  53.0520 165.6089 0001295  91.6676 268.4461 15.06403453218135
STARLINK-2049           
1 47356U 21005H   24363.80347095  .00002196  00000+0  16627-3 0  9999
2 47356  53.0513 188.3837 0001589  94.7943 265.3228 15.06397677217763
STARLINK-2050           
1 47357U 21005J   24364.31679119  .00003011  00000+0  22090-3 0  9990
2 47357  53.0530 216.5093 0001247  92.8323 267.2809 15.06403225217418
STARLINK-2055           
1 47358U 21005K   24364.54341421 -.00000178  00000+0  69581-5 0  9998
2 47358  53.0543 185.0545 0001471  91.3937 268.7220 15.06393397217870
STARLINK-2069           
1 47359U 21005L   24364.53197600  .00053186  00000+0  22753-2 0  9999
2 47359  53.0387 202.1431 0003025 162.5051 197.6050 15.22326919217636
STARLINK-2071           
1 47361U 21005N   24364.21997751  .00001846  00000+0  14277-3 0  9991
2 47361  53.0520 186.5114 0001284  79.9371 280.1763 15.06400928217827
STARLINK-2076           
1 47362U 21005P   24364.59686702  .00011428  00000+0  78455-3 0  9999
2 47362  53.0522 214.8265 0001406  86.7158 273.3992 15.06412701217467
STARLINK-2077           
1 47363U 21005Q   24364.58334491  .00609303  16386-3  15682-2 0  9999
2 47363  53.0369 191.8983 0006953 254.0170  52.2933 15.94620864  6085
STARLINK-2081           
1 47366U 21005T   24364.56001066  .00001312  00000+0  10696-3 0  9998
2 47366  53.0534 214.9893 0001527  87.6345 272.4819 15.06403701217451
STARLINK-2082           
1 47367U 21005U   24364.32042527  .00003254  00000+0  23722-3 0  9991
2 47367  53.0533 216.0708 0001461  98.5924 261.5230 15.06401841217426
STARLINK-2084           
1 47368U 21005V   24364.31305356  .00003266  00000+0  23804-3 0  9997
2 47368  53.0528 216.1019 0001412  92.1649 267.9501 15.06403945217425
STARLINK-2086           
1 47370U 21005X   24364.47522189  .00000649  00000+0  62443-4 0  9997
2 47370  53.0544 175.3738 0001310  88.4289 271.6850 15.06404171218012
STARLINK-2088           
1 47371U 21005Y   24364.59318612  .00008285  00000+0  57422-3 0  9999
2 47371  53.0525 214.8442 0001418  97.7700 262.3450 15.06413862217461
STARLINK-2089           
1 47372U 21005Z   24364.52508128  .01116282  70026-3  15692-2 0  9995
2 47372  53.0365 188.2988 0006001 277.5972  82.4377 16.05278349217823
STARLINK-2092           
1 47373U 21005AA  24364.32410953  .00002259  00000+0  17050-3 0  9991
2 47373  53.0542 216.0512 0001490  94.2956 265.8204 15.06401558217429
STARLINK-2093           
1 47374U 21005AB  24363.87811231  .00005260  00000+0  37172-3 0  9997
2 47374  53.0528 218.0236 0001786  89.0376 271.0817 15.06406029217354
STARLINK-2094           
1 47375U 21005AC  24364.61529517  .00005090  00000+0  36021-3 0  9997
2 47375  53.0532 214.7364 0001696  98.7874 261.3307 15.06413932217464
STARLINK-2096           
1 47376U 21005AD  24364.61898525  .00005668  00000+0  39890-3 0  9994
2 47376  53.0532 214.7304 0001380  84.5384 275.5762 15.06420224217462
STARLINK-2097           
1 47377U 21005AE  24364.60425019  .00005117  00000+0  36202-3 0  9991
2 47377  53.0534 214.7868 0001528  96.8541 263.2622 15.06412354217469
STARLINK-2098           
1 47378U 21005AF  24364.46416628  .00000724  00000+0  67449-4 0  9999
2 47378  53.0521 175.4184 0001379  81.7284 278.3862 15.06408643218001
STARLINK-2099           
1 47379U 21005AG  24364.20521522  .00006002  00000+0  42170-3 0  9990
2 47379  53.0531 176.5725 0001117 104.5819 255.5294 15.06382540217961
STARLINK-2100           
1 47380U 21005AH  24364.50010623  .00001739  00000+0  13563-3 0  9996
2 47380  53.0515 185.2584 0001317  90.8073 269.3067 15.06403070217879
STARLINK-2101           
1 47381U 21005AJ  24364.25085917  .00001304  00000+0  10641-3 0  9999
2 47381  53.0545 191.4644 0001340  95.9207 264.1935 15.06398919217760
STARLINK-2102           
1 47382U 21005AK  24364.22735024  .00001720  00000+0  13432-3 0  9991
2 47382  53.0541 186.4858 0001398  93.9868 266.1281 15.06397172217825
STARLINK-2103           
1 47383U 21005AL  24364.20618894  .00001643  00000+0  12918-3 0  9997
2 47383  53.0535 176.8620 0001197  96.0415 264.0711 15.06397786217969
STARLINK-2104           
1 47384U 21005AM  24364.21263175  .00004233  00000+0  30285-3 0  9992
2 47384  53.0528 186.7905 0001554  85.0422 275.0744 15.06409714217829
